[{"company":"EQUITY TRUST CO"},{"company":"EAST COAST PROPERTIES LLC"},{"company":"LUCKYTOWN PROPERTIES LLC"},{"company":"PETROSKI LLC"},{"company":"MAUCH CHUNK TRUST CO"},[{"company":"JAMESON CONTRACTORS LIMITED LIABILITY COMPANY","address":"121 QUINCE CIR","city":"NEWTOWN","state":"PA","zipcode":"18940"}],[{"company":"RECB LLC","address":"N/A","city":"N/A","state":"N/A","zipcode":"N/A"}],[{"company":"RANDALL L MARTIN BUILDER INC","firstName":"RANDALL L","lastName":"MARTIN","status":"TREASURER","address":"232 WENTZEL RD","city":"MOHNTON","state":"PA","zipcode":"19540"}],[{"company":"RESIDUAL HOLDINGS LP","firstName":"Residual Investment","lastName":"Group","status":"GENPARTNER","address":"45 E Cityline Avenue #441","city":"Bala Cynwyd","state":"PA","zipcode":"19004"}],[{"company":"DITECH FINANCIAL LLC","address":"25 S 19th St","city":"Philadelphia","state":"PA","zipcode":"19103"}],[{"company":"DITECH FINANCIAL LLC","address":"25 S 19th St","city":"Philadelphia","state":"PA","zipcode":"19103"}],[{"company":"DITECH FINANCIAL LLC","address":"25 S 19th St","city":"Philadelphia","state":"PA","zipcode":"19103"}],[{"company":"DITECH FINANCIAL LLC","address":"25 S 19th St","city":"Philadelphia","state":"PA","zipcode":"19103"}],[{"company":"DITECH FINANCIAL LLC","address":"25 S 19th St","city":"Philadelphia","state":"PA","zipcode":"19103"}],[{"company":"DITECH FINANCIAL LLC","address":"25 S 19th St","city":"Philadelphia","state":"PA","zipcode":"19103"}],[{"company":"DITECH FINANCIAL LLC","address":"25 S 19th St","city":"Philadelphia","state":"PA","zipcode":"19103"}],[{"company":"DITECH FINANCIAL LLC","address":"25 S 19th St","city":"Philadelphia","state":"PA","zipcode":"19103"}],[{"company":"DITECH FINANCIAL LLC","address":"25 S 19th St","city":"Philadelphia","state":"PA","zipcode":"19103"}],[{"company":"DITECH FINANCIAL LLC","address":"25 S 19th St","city":"Philadelphia","state":"PA","zipcode":"19103"}],[{"company":"GRANDE LAND LP","firstName":"GRANDE MANAGEMENT","lastName":"CORPORATION","status":"GENPARTNER","address":"2213 Quarry Drive","city":"West Lawn","state":"PA","zipcode":"19609"}],[{"company":"DITECH FINANCIAL LLC","address":"25 S 19th St","city":"Philadelphia","state":"PA","zipcode":"19103"}],[{"company":"WINDMILL ASSOCIATES LP","firstName":"WINDMILL ASSOCIATES","lastName":"LLC","status":"GENPARTNER","address":"119 GAMMA DRIVE","city":"Pittsburgh PA 15238-","state":"N/A","zipcode":"N/A"}],[{"company":"H & R HOLDINGS LLC","address":"109 Merion Road","city":"Merion Station","state":"PA","zipcode":"19066"}],[{"company":"KYS HOLDINGS LLC","address":"N/A","city":"N/A","state":"N/A","zipcode":"N/A"}],[{"company":"KYS HOLDINGS LLC","address":"N/A","city":"N/A","state":"N/A","zipcode":"N/A"}],[{"company":"KYS HOLDINGS LLC","address":"N/A","city":"N/A","state":"N/A","zipcode":"N/A"}],{"company":"T S PITT LLC"},[{"company":"ZAPPY PROPERTIES LLC","address":"849 STATE ROUTE 68","city":"EAST BRADY","state":"PA","zipcode":"16028"}],[{"company":"160 NORTH HARTLEY LLC","address":"96 South George Street Suite 210","city":"YORK","state":"PA","zipcode":"17401"}],[{"company":"WWKD LLC","address":"6825 Germantown Ave, 2nd Floor","city":"Philadelphia","state":"PA","zipcode":"19119"}],[{"company":"JN REALTY CORP INC","firstName":"KEMP","lastName":"BANKS","status":"PRESIDENT","address":"8413 MICHENER AVE","city":"PHILADELPHIA","state":"PA","zipcode":"19150"}],[{"company":"TRIPLE B PROPERTIES LLC","address":"152 Twin Run Road","city":"Greensburg","state":"PA","zipcode":"15601"}],{"company":"LAMCO LLC"},[{"company":"BP REAL ESTATE INVESTMENT GROUP LP","firstName":"LK16 Group,","lastName":"LLC","status":"GENPARTNER","address":"1770 Oregon Pike","city":"Lancaster","state":"PA","zipcode":"17601"}],[{"company":"EN LAI INVESTMENT LLC","address":"2947 Devereaux Ave","city":"PHILADELPHIA","state":"PA","zipcode":"19149"}],[{"company":"ESH REAL ESTATE LLC","address":"209 Parkside Avenue","city":"Reading","state":"PA","zipcode":"19607"}],[{"company":"ESH REAL ESTATE LLC","address":"209 Parkside Avenue","city":"Reading","state":"PA","zipcode":"19607"}],[{"company":"RT PARTNERS LP","firstName":"RAND GROUP","lastName":"INC","status":"GENPARTNER","address":"71 PROGRESS AVE","city":"CRANBERRY TOWNSHIP","state":"PA","zipcode":"16066"}],[{"company":"JM RAYER DEVELOPERS LLC","address":"70 East Clearfield Road","city":"Havertown","state":"PA","zipcode":"19083"}],{"company":"MO INVESTMENTS LLC"},[{"company":"BHM MANAGEMENT LLC","address":"20 Montgomery Ave Unit K","city":"Bala Cynwyd","state":"PA","zipcode":"19004"}],[{"company":"BHM MANAGEMENT LLC","address":"20 Montgomery Ave Unit K","city":"Bala Cynwyd","state":"PA","zipcode":"19004"}],[{"company":"WE BUY HOUSES LANCASTER LLC","address":"216 Little Beaver Rd","city":"Strasburg","state":"PA","zipcode":"17579"}],[{"company":"DESTINY PROPERTIES LLC","address":"301 Broadway","city":"Hanover","state":"PA","zipcode":"17331"}],[{"company":"TILLOTSON PROPERTIES LLC","address":"1296 Range Road","city":"YORK","state":"PA","zipcode":"17402"}],[{"company":"PERKING FINANCIAL LLC","address":"2426 Kutztown Road Suite 101","city":"READING","state":"PA","zipcode":"19605"}],{"company":"TOLL PA XL LP"},{"company":"BROAD STREET FUNDING TRUST I"},{"company":"HG 92 LLC"},{"company":"CMPJ LLC"},[{"company":"NORTH BROAD HOLDINGS LLC","address":"210 TOMLINSON RD","city":"PHILADELPHIA","state":"PA","zipcode":"19116"}],{"company":"ALLISON PROPERTY DEV LLC"},{"company":"IDDINGS INVS PROP LP"},{"company":"KALPAKIDIS,DIMITRIOS"},{"company":"VIKING ENTS LLC"},{"company":"WOODCRAFTERS UNLIMITED INC"},{"company":"CCM CONST MGMT INC"},{"company":"R & S HOFFMAN BUILDERS LLC"},{"company":"VFS ARCTOS LLC"},{"company":"SUNTRUST BK"},[{"company":"KEYSTONE CENTRAL HOMES LLC","address":"111 ELM ROAD","city":"PENNSYLVANIA FURNACE","state":"PA","zipcode":"16865"}],{"company":"CASTLE ROCK 2017 LLC"},{"company":"MT PLEASANT VENTURES LLC"},{"company":"DIGUISEPPE,RALPH & MONICA"},[{"company":"BRIGHT FUTURE ENTERPRISES LLC","address":"422 W Master Street","city":"PHILADELPHIA","state":"PA","zipcode":"19122"}],[{"company":"BRIGHT FUTURE ENTERPRISES LLC","address":"422 W Master Street","city":"PHILADELPHIA","state":"PA","zipcode":"19122"}],{"company":"OSK PROPERTIES LLC"},[{"company":"MACINTOSH HOMES LLC","address":"602 East Broad Street PO Box 64432","city":"Souderton","state":"PA","zipcode":"18964"}],[{"company":"MACINTOSH HOMES LLC","address":"602 East Broad Street PO Box 64432","city":"Souderton","state":"PA","zipcode":"18964"}],{"company":"WINDING HILL ASSOC LLC"},{"company":"REVERSE MTG FNDG LLC"},{"company":"INVERSIONES LIBE 73 LLC"},[{"company":"PHL REINVEST LLC","address":"317 Astor Ct.","city":"DOWNINGTOWN","state":"PA","zipcode":"19335"}],{"company":"SCRATCH DEV LLC"},[{"company":"PEER MANAGEMENT INC","address":"10024 Ferdale St fl 1","city":"Philadelphia","state":"PA","zipcode":"19116"}],{"company":"BROOKSIDE PROPERTY HOLDIGNS LLC"},{"company":"BP REAL ESTATE INV GROUP LP"},{"company":"VINCE M SMITH"},{"company":"FARINE PROPS LLC"},[{"company":"MJ4 PROPERTIES LLC","address":"N/A","city":"N/A","state":"N/A","zipcode":"N/A"}],[{"company":"ESTATES OF TRINITY LLC","address":"660 E. Wensley St.","city":"Philadelphia","state":"PA","zipcode":"19134"}],[{"company":"TRI CORNER COMMUNITIES LLC","address":"3405 6th","city":"Harrisburg","state":"PA","zipcode":"N/A"}],{"company":"BANK OF NEW YORK MELLON TRUST CO"},[{"company":"EQUITY PROPERTIES LLC","address":"939 Township Line Road","city":"Elkins Park","state":"PA","zipcode":"19027"}],{"company":"EVANS HOLDING LLC"},[{"company":"MAJOR LEAGUE PROPERTIES LLC","address":"1500 E Market St","city":"York","state":"PA","zipcode":"17403"}],[{"company":"COUNTRY Q LLC","address":"N/A","city":"N/A","state":"N/A","zipcode":"N/A"}],{"company":"JP MORGAN MORTGAGE ACQUISITION CORP"},[{"company":"DELEON INVESTMENTS LLC","address":"108 W CENTRE ST","city":"MAHANOY CITY","state":"PA","zipcode":"17948"}],{"company":"BRANCH BKNG & TRUST CO"},[{"company":"DELEON INVESTMENTS LLC","address":"108 W CENTRE ST","city":"MAHANOY CITY","state":"PA","zipcode":"17948"}],[{"company":"MGLS REALTY LLC","address":"256 Butler Street","city":"Pittston","state":"PA","zipcode":"18640"}],[{"company":"WIEA LLC","address":"5326 Baynton St","city":"Philadelphia","state":"PA","zipcode":"19144"}],[{"company":"WIEA LLC","address":"5326 Baynton St","city":"Philadelphia","state":"PA","zipcode":"19144"}],[{"company":"CHARTER HOMES AT THE POINT INC","address":"1190 Dillerville Road","city":"Lancaster","state":"PA","zipcode":"17601"}],[{"company":"LOCKWOOD PROPERTY HOLDINGS LLC","address":"780 Eden Rd","city":"Lancaster","state":"PA","zipcode":"17601"}],[{"company":"CITRONA HOMES LLC","address":"510 Vine Street","city":"Johnstown","state":"PA","zipcode":"15901"}],[{"company":"COBA INC","firstName":"PETER E","lastName":"WILSON","status":"TREASURER","address":"1701 ROUTE 70 EAST","city":"CHERRY HI","state":"LL","zipcode":"N/A"}],[{"company":"SARKEN INVESTMENT GROUP LLC","address":"N/A","city":"N/A","state":"N/A","zipcode":"N/A"}],[{"company":"H SAM GROUP LLC","address":"16 Balthaser Road","city":"Sinking Spring","state":"PA","zipcode":"19608"}],[{"company":"H SAM GROUP LLC","address":"16 Balthaser Road","city":"Sinking Spring","state":"PA","zipcode":"19608"}],[{"company":"ECA HOLDINGS LP","firstName":"ECA Associates,","lastName":"LLC","status":"GENPARTNER","address":"1030 Broadmoor Road","city":"Bryn Mawr","state":"PA","zipcode":"19010"}],{"company":"ALB INVS LLC"},{"company":"USA REGROWTH FUND LLC"},[{"company":"H SAM GROUP LLC","address":"16 Balthaser Road","city":"Sinking Spring","state":"PA","zipcode":"19608"}],[{"company":"COASTLINE CAPITAL LLC","address":"18 Second Street","city":"Washington Boro","state":"PA","zipcode":"17582"}],{"company":"LIVE WELL FINL INC"},[{"company":"HOUSE OF DUCKS LLC","address":"9925 Bustleton","city":"Philadelphia","state":"PA","zipcode":"N/A"}],{"company":"PEOPLES SEC BK & TRUST CO"},{"company":"JP MORGAN MTG TRUST 2004-S2"},[{"company":"WELCOME HOME REALITIES LLC","address":"218 E PARK RD","city":"HAVERTOWN","state":"PA","zipcode":"19083"}],[{"company":"WELCOME HOME REALITIES LLC","address":"218 E PARK RD","city":"HAVERTOWN","state":"PA","zipcode":"19083"}],[{"company":"WELCOME HOME REALITIES LLC","address":"218 E PARK RD","city":"HAVERTOWN","state":"PA","zipcode":"19083"}],[{"company":"SFRES1 LLC","address":"N/A","city":"N/A","state":"N/A","zipcode":"N/A"}],[{"company":"LIBERTY SQUARE INVESTMENT LLC","address":"301 Market Street","city":"Lemoyne","state":"PA","zipcode":"17043"}],[{"company":"LIBERTY SQUARE INVESTMENT LLC","address":"301 Market Street","city":"Lemoyne","state":"PA","zipcode":"17043"}],[{"company":"LIBERTY SQUARE INVESTMENT LLC","address":"301 Market Street","city":"Lemoyne","state":"PA","zipcode":"17043"}],{"company":"DCS INVS LLC"},[{"company":"RUFUS CONCEPTS LLC","address":"N/A","city":"N/A","state":"N/A","zipcode":"N/A"}],[{"company":"RUFUS CONCEPTS LLC","address":"N/A","city":"N/A","state":"N/A","zipcode":"N/A"}],[{"company":"DALTON DICKSON PROPERTIES LLC","address":"457 Craig Rd","city":"Dalton","state":"PA","zipcode":"18414"}],[{"company":"BURT PROPERTY HOLDINGS LLC","address":"N/A","city":"N/A","state":"N/A","zipcode":"N/A"}],[{"company":"BURT PROPERTY HOLDINGS LLC","address":"N/A","city":"N/A","state":"N/A","zipcode":"N/A"}],{"company":"BLUE TRUCK ENTS LLC"},[{"company":"FLIP IT OVER LLC","address":"4206 Linglestown Road","city":"HARRISBURG","state":"PA","zipcode":"17112"}],[{"company":"BUDGET RENTALS LLC","address":"712 South George St.","city":"York","state":"PA","zipcode":"17401"}],[{"company":"BERACAH BUILDERS LLP","firstName":"MICHAEL","lastName":"BURDICK","status":"PRESIDENT","address":"6211 WHITEHILL DR","city":"MECHANICSBURG","state":"PA","zipcode":"17050"}],[{"company":"438 S 50TH ST LLC","address":"6767 Germantown Ave","city":"PHILADELPHIA","state":"PA","zipcode":"19119"}],[{"company":"PASSMORE INVESTMENT INC","address":"431 PASSMORE ST","city":"PHILADELPHIA","state":"PA","zipcode":"19111"}],[{"company":"WEBE PROPERTIES LLC","address":"13 Independence Place","city":"Newtown","state":"PA","zipcode":"18940"}],[{"company":"WEBE PROPERTIES LLC","address":"13 Independence Place","city":"Newtown","state":"PA","zipcode":"18940"}],{"company":"KJ2 EQUITY TRUST"},[{"company":"CITIFINANCIAL SERVICING LLC","address":"438 S 50th St","city":"Philadelphia","state":"PA","zipcode":"19143"}],[{"company":"CITIFINANCIAL SERVICING LLC","address":"438 S 50th St","city":"Philadelphia","state":"PA","zipcode":"19143"}],[{"company":"GRIT PROPERTIES LLC","address":"4723 Backus Road","city":"Erie","state":"PA","zipcode":"16510"}],[{"company":"1722 HANCOCK ST LLC","address":"2051 Carmol Drive","city":"JAMISON","state":"PA","zipcode":"18929"}],{"company":"PATTERSON PRFD PROP LLC"},[{"company":"PROPERTY MERCHANTS LLC","address":"251 Dodds Road","city":"Butler","state":"PA","zipcode":"16002"}],[{"company":"HUNTERS GLEN LP","firstName":"HV REAL","lastName":"ESTATE","status":"GENPARTNER","address":"1085 MANHEIM PIKE LANCASTER","city":"N/A","state":"PA","zipcode":"17601"}],[{"company":"PROPERTY MERCHANTS LLC","address":"251 Dodds Road","city":"Butler","state":"PA","zipcode":"16002"}],[{"company":"OFFICIAL HOUSE BUYERS LLC","address":"158 E Butler Ave, Suite 2","city":"Ambler","state":"PA","zipcode":"19002"}],{"company":"PENN PIONEER ENTS LLC"},[{"company":"BRANCH BANKING AND TRUST COMPANY","address":"N/A","city":"N/A","state":"N/A","zipcode":"N/A"}],[{"company":"PGH DEVELOPERS LLC","address":"N/A","city":"N/A","state":"N/A","zipcode":"N/A"}],[{"company":"PGH DEVELOPERS LLC","address":"N/A","city":"N/A","state":"N/A","zipcode":"N/A"}],[{"company":"930 SECOND LLC","address":"209 wiltshire rd","city":"wynnewood","state":"PA","zipcode":"19096"}],[{"company":"MARLEY PROPERTIES LLC","address":"7998 New Falls Rd","city":"Levittown","state":"PA","zipcode":"19055"}],[{"company":"MARLEY PROPERTIES LLC","address":"7998 New Falls Rd","city":"Levittown","state":"PA","zipcode":"19055"}],[{"company":"MARLEY PROPERTIES LLC","address":"7998 New Falls Rd","city":"Levittown","state":"PA","zipcode":"19055"}],[{"company":"RUNNING HORSE INVESTMENTS LLC","firstName":"MARK","lastName":"BOJANOWSKI","status":"PRESIDENT","address":"793 SOUTH 2ND ST","city":"PHILADELPH","state":"IA","zipcode":"N/A"}],{"company":"NRZ REO VI-B LLC"},[{"company":"VILLAS ASSOCIATES ONE LLC","address":"3 Barleycorn Dr","city":"Broomall","state":"PA","zipcode":"19008"}],[{"company":"PRIMESITE INC","address":"37 Kara Lane PO Box 701","city":"Bloomsburg","state":"PA","zipcode":"17815"}],{"company":"ARBOL PROPS LLC"},[{"company":"LK PROPERTIES INC","firstName":"LAURYNAS","lastName":"KALASAUSKAS","status":"VICEPRESIDENT","address":"2417 WELSH RD","city":"PHILADELPHIA","state":"PA","zipcode":"19114"}],[{"company":"SILO DRIVE LLC","address":"5285 West Coplay Road","city":"Whitehall","state":"PA","zipcode":"18052"}],[{"company":"SUMEET HOLDINGS INC","address":"76 5TH AVE","city":"BROOMALL","state":"PA","zipcode":"19008"}],[{"company":"BAMB PROPERTIES LLC","address":"11188 RT 235","city":"Beaver Springs","state":"PA","zipcode":"17812"}],{"company":"MADISON REVOLVING TRUST 2017"},{"company":"RECO LLC"},{"company":"TRE LLC"},{"company":"BRIDGEHOUSE PROPS LLC"},{"company":"CASTLEROCK 2017 LLC"},{"company":"NEGE INVESTMENT GROUP INC"},{"company":"RM PROPS LLC"},{"company":"CENTRAL PENN CAP MGMNT LLC"},{"company":"SAUCON CRK PROP MGMT LLC"},{"company":"BEACON HM & PROP SOLUTIONS LLC"},{"company":"BAYVIEW LOAN SVCG LLC"},{"company":"NEW CENTURY HM TRUST 2006-1"},{"company":"RMAC TRUST 2016-CTT"},{"company":"BENCHMARG HOLDINGS LLC"},{"company":"DUNKIN ENTS LLC"},{"company":"SONSHINE ITI LP"},{"company":"SJC DEV GROUP INC"},{"company":"DEUTSCHE BK TRUST CO 2005-4"},{"company":"OPTION ONE M TRUST 2007-FXD1"},{"company":"GREENE INVS SETTLEMENTS LLC"},{"company":"GARMAN BUILDERS OF CUMBERLAND LLC"},{"company":"STRUCTURED AS TRUST 2006-RF3"},{"company":"CIT MTG LOAN TRUST 2007-1"},{"company":"U S BANK TRUST NATIONAL ASSOCIATION"},{"company":"NRD REV TRUST 30 LLC"},{"company":"MASTR ASSET B TRUST 2005-WF1"},{"company":"TEL INV GROUP LLC"},{"company":"VISION R/E HLDGS LLC"},{"company":"COMMONWEALTH PROP HLDGS LLC"},{"company":"MTM PROP GROUP LLC"},{"company":"WF REVERSE REO HECM 2015 1 LLC"},{"company":"SHERIFF OF PHILADELPHIA COUNTY|7417 BEVERLY ROAD L"},{"company":"JDM R/E INVS II LLC"},{"company":"BENCHMARQ HLDGS LLC"},{"company":"BELLE PROP SOLUTIONS LLC"},{"company":"DEUTSCHE BK TRUST 2006-QS3"},{"company":"SPINNAKER PROPERTY MGMT LLC"},{"company":"TITLE HOLDING TRUST NO 105"},{"company":"BAYVIEW LOAN SVCING LLC"},{"company":"NRZ REO X LLC"},{"company":"QUALITY HM INVS LLC"},{"company":"WILMINGTON TRUST 2007-AR6"}]